NORAD_CAT_ID,OBJECT_NAME,OBJECT_TYPE,EPOCH,MEAN_MOTION,ECCENTRICITY,INCLINATION,RA_OF_ASC_NODE,ARG_OF_PERICENTER,MEAN_ANOMALY,BSTAR,MEAN_MOTION_DOT,MEAN_MOTION_DDOT,TLE_LINE0,TLE_LINE1,TLE_LINE2,SEMIMAJOR_AXIS,PERIOD,APOGEE,PERIGEE,DECAYED
52134.0,STARLINK-3721,PAYLOAD,2023-06-08 00:21:08,15.08823033,8.66e-05,53.2167,263.7716,96.6682,263.4408,0.00025913,3.837e-05,0.0,0 STARLINK-3721,1 52134U 22029AY  23159.01468474  .00003837  00000-0  25913-3 0  9998,2 52134  53.2167 263.7716 0000866  96.6682 263.4408 15.08823033 69117,6917.932,95.439,540.396,539.198,0.0
52134.0,STARLINK-3721,PAYLOAD,2023-06-08 06:42:40,15.08840493,0.0001035,53.2167,262.582,87.9262,272.1849,3.9952e-05,3.48e-06,0.0,0 STARLINK-3721,1 52134U 22029AY  23159.27963944  .00000348  00000-0  39952-4 0  9991,2 52134  53.2167 262.5820 0001035  87.9262 272.1849 15.08840493 69155,6917.879,95.438,540.46,539.028,0.0
52134.0,STARLINK-3721,PAYLOAD,2023-06-08 11:28:50,15.08837625,7.59e-05,53.2165,261.6896,88.6392,271.4687,8.937e-05,1.135e-05,0.0,0 STARLINK-3721,1 52134U 22029AY  23159.47835897  .00001135  00000-0  89370-4 0  9992,2 52134  53.2165 261.6896 0000759  88.6392 271.4687 15.08837625 69188,6917.888,95.438,540.278,539.228,0.0
52134.0,STARLINK-3721,PAYLOAD,2023-06-08 13:04:13,15.08843873,8.2e-05,53.2168,261.3904,84.4359,275.6726,7.2355e-05,8.64e-06,0.0,0 STARLINK-3721,1 52134U 22029AY  23159.54459598  .00000864  00000-0  72355-4 0  9993,2 52134  53.2168 261.3904 0000820  84.4359 275.6726 15.08843873 69197,6917.869,95.437,540.301,539.166,0.0
52134.0,STARLINK-3721,PAYLOAD,2023-06-08 17:50:21,15.08850758,8.14e-05,53.2169,260.4978,89.3308,270.7777,0.00012181,1.652e-05,0.0,0 STARLINK-3721,1 52134U 22029AY  23159.74330928  .00001652  00000-0  12181-3 0  9996,2 52134  53.2169 260.4978 0000814  89.3308 270.7777 15.08850758 69226,6917.848,95.437,540.276,539.149,0.0
52134.0,STARLINK-3721,PAYLOAD,2023-06-09 06:33:28,15.0883646,0.0001041,53.2167,258.1236,33.4582,326.6476,-3.9338e-05,-9.14e-06,0.0,0 STARLINK-3721,1 52134U 22029AY  23160.27324533 -.00000914  00000-0 -39338-4 0  9997,2 52134  53.2167 258.1236 0001041  33.4582 326.6476 15.08836460 69302,6917.891,95.438,540.476,539.036,0.0
52134.0,STARLINK-3721,PAYLOAD,2023-06-09 12:55:00,15.08839829,0.0001018,53.2166,256.9332,66.2711,293.8388,1.2988e-06,-2.67e-06,0.0,0 STARLINK-3721,1 52134U 22029AY  23160.53820184 -.00000267  00000-0  12988-5 0  9992,2 52134  53.2166 256.9332 0001018  66.2711 293.8388 15.08839829 69349,6917.881,95.438,540.45,539.042,0.0
52134.0,STARLINK-3721,PAYLOAD,2023-06-09 16:05:46,15.08842711,0.0001048,53.2168,256.336,69.5897,290.5208,-1.3054e-05,-4.96e-06,0.0,0 STARLINK-3721,1 52134U 22029AY  23160.67068053 -.00000496  00000-0 -13054-4 0  9995,2 52134  53.2168 256.3360 0001048  69.5897 290.5208 15.08842711 69361,6917.872,95.437,540.462,539.012,0.0
52134.0,STARLINK-3721,PAYLOAD,2023-06-10 12:45:47,15.08843748,0.0001053,53.216,252.4692,93.0835,267.0278,6.8961e-05,8.1e-06,0.0,0 STARLINK-3721,1 52134U 22029AY  23161.53179779  .00000810  00000-0  68961-4 0  9994,2 52134  53.2160 252.4692 0001053  93.0835 267.0278 15.08843748 69499,6917.869,95.437,540.462,539.005,0.0
52134.0,STARLINK-3721,PAYLOAD,2023-06-10 15:56:33,15.08846431,9.75e-05,53.2165,251.8741,95.2462,264.8641,2.9206e-05,1.77e-06,0.0,0 STARLINK-3721,1 52134U 22029AY  23161.66427693  .00000177  00000-0  29206-4 0  9994,2 52134  53.2165 251.8741 0000975  95.2462 264.8641 15.08846431 69518,6917.861,95.437,540.4,539.051,0.0
52134.0,STARLINK-3721,PAYLOAD,2023-06-11 06:15:02,15.08835214,9.14e-05,53.2151,249.198,88.2912,271.8185,4.2767e-05,3.93e-06,0.0,0 STARLINK-3721,1 52134U 22029AY  23162.26044489  .00000393  00000-0  42767-4 0  9996,2 52134  53.2151 249.1980 0000914  88.2912 271.8185 15.08835214 69601,6917.895,95.438,540.392,539.128,0.0
52134.0,STARLINK-3721,PAYLOAD,2023-06-11 14:11:58,15.08837267,0.0001006,53.2161,247.7106,89.825,270.2858,4.2587e-05,3.9e-06,0.0,0 STARLINK-3721,1 52134U 22029AY  23162.59164380  .00000390  00000-0  42587-4 0  9992,2 52134  53.2161 247.7106 0001006  89.8250 270.2858 15.08837267 69656,6917.889,95.438,540.45,539.058,0.0
52134.0,STARLINK-3721,PAYLOAD,2023-06-11 22:08:53,15.08840874,9.7e-05,53.2163,246.2247,88.0257,272.0846,5.6424e-05,6.1e-06,0.0,0 STARLINK-3721,1 52134U 22029AY  23162.92284128  .00000610  00000-0  56424-4 0  9992,2 52134  53.2163 246.2247 0000970  88.0257 272.0846 15.08840874 69706,6917.878,95.437,540.414,539.072,0.0
52134.0,STARLINK-3721,PAYLOAD,2023-06-12 12:27:21,15.08841625,0.0001015,53.2169,243.551,90.9759,269.135,7.3568e-05,8.83e-06,0.0,0 STARLINK-3721,1 52134U 22029AY  23163.51900115  .00000883  00000-0  73568-4 0  9999,2 52134  53.2169 243.5510 0001015  90.9759 269.1350 15.08841625 69796,6917.875,95.437,540.443,539.038,0.0
52134.0,STARLINK-3721,PAYLOAD,2023-06-12 21:59:40,15.08841293,9.09e-05,53.2158,241.7673,90.5345,269.5751,-4.412e-05,-9.9e-06,0.0,0 STARLINK-3721,1 52134U 22029AY  23163.91644408 -.00000990  00000-0 -44120-4 0  9996,2 52134  53.2158 241.7673 0000909  90.5345 269.5751 15.08841293 69859,6917.876,95.437,540.37,539.113,0.0
52134.0,STARLINK-3721,PAYLOAD,2023-06-13 04:21:13,15.08832904,9.06e-05,53.2161,240.5778,88.6349,271.4747,4.6057e-05,4.45e-06,0.0,0 STARLINK-3721,1 52134U 22029AY  23164.18140813  .00000445  00000-0  46057-4 0  9991,2 52134  53.2161 240.5778 0000906  88.6349 271.4747 15.08832904 69895,6917.902,95.438,540.394,539.14,0.0
52134.0,STARLINK-3721,PAYLOAD,2023-06-14 05:47:23,15.08837719,0.0001102,53.2178,235.8188,93.5171,266.5947,5.0938e-05,5.23e-06,0.0,0 STARLINK-3721,1 52134U 22029AY  23165.24124822  .00000523  00000-0  50938-4 0  9991,2 52134  53.2178 235.8188 0001102  93.5171 266.5947 15.08837719 70058,6917.887,95.438,540.515,538.99,0.0
52134.0,STARLINK-3721,PAYLOAD,2023-06-15 10:24:20,15.08837254,0.0001052,53.2162,230.4648,85.2944,274.8168,6.0695e-05,6.78e-06,0.0,0 STARLINK-3721,1 52134U 22029AY  23166.43357044  .00000678  00000-0  60695-4 0  9999,2 52134  53.2162 230.4648 0001052  85.2944 274.8168 15.08837254 70234,6917.889,95.438,540.482,539.026,0.0
52134.0,STARLINK-3721,PAYLOAD,2023-06-15 11:59:43,15.08838235,0.0001047,53.2164,230.1677,84.5729,275.5383,6.9736e-05,8.22e-06,0.0,0 STARLINK-3721,1 52134U 22029AY  23166.49980987  .00000822  00000-0  69736-4 0  9999,2 52134  53.2164 230.1677 0001047  84.5729 275.5383 15.08838235 70240,6917.886,95.438,540.475,539.026,0.0
52134.0,STARLINK-3721,PAYLOAD,2023-06-16 10:15:06,15.08847669,0.0001055,53.216,226.0045,83.7001,276.4111,0.00011946,1.614e-05,0.0,0 STARLINK-3721,1 52134U 22029AY  23167.42716137  .00001614  00000-0  11946-3 0  9996,2 52134  53.2160 226.0045 0001055  83.7001 276.4111 15.08847669 70387,6917.857,95.437,540.452,538.992,0.0
52134.0,STARLINK-3721,PAYLOAD,2023-06-16 22:58:12,15.08842352,0.0001095,53.2154,223.6252,90.3956,269.7161,8.5615e-05,1.075e-05,0.0,0 STARLINK-3721,1 52134U 22029AY  23167.95708358  .00001075  00000-0  85615-4 0  9996,2 52134  53.2154 223.6252 0001095  90.3956 269.7161 15.08842352 70463,6917.873,95.437,540.496,538.981,0.0
52134.0,STARLINK-3721,PAYLOAD,2023-06-17 10:05:54,15.08835735,0.0001135,53.2155,221.5443,89.1018,271.0105,1.3726e-05,-6.9e-07,0.0,0 STARLINK-3721,1 52134U 22029AY  23168.42077026 -.00000069  00000-0  13726-4 0  9997,2 52134  53.2155 221.5443 0001135  89.1018 271.0105 15.08835735 70532,6917.893,95.438,540.544,538.973,0.0
52134.0,STARLINK-3721,PAYLOAD,2023-06-18 09:56:41,15.08840529,9.28e-05,53.2159,217.0836,93.9342,266.1756,-8.6342e-06,-4.25e-06,0.0,0 STARLINK-3721,1 52134U 22029AY  23169.41436797 -.00000425  00000-0 -86342-5 0  9993,2 52134  53.2159 217.0836 0000928  93.9342 266.1756 15.08840529 70684,6917.879,95.438,540.386,539.102,0.0
52134.0,STARLINK-3721,PAYLOAD,2023-06-19 11:22:51,15.08838818,0.0001037,53.2159,212.3257,97.1685,262.9425,9.3565e-05,1.202e-05,0.0,0 STARLINK-3721,1 52134U 22029AY  23170.47420740  .00001202  00000-0  93565-4 0  9998,2 52134  53.2159 212.3257 0001037  97.1685 262.9425 15.08838818 70840,6917.884,95.438,540.466,539.032,0.0
52134.0,STARLINK-3721,PAYLOAD,2023-06-20 09:38:16,15.08833503,7.84e-05,53.2158,208.1622,79.5696,280.5384,-3.4193e-07,-2.93e-06,0.0,0 STARLINK-3721,1 52134U 22029AY  23171.40157682 -.00000293  00000-0 -34193-6 0  9999,2 52134  53.2158 208.1622 0000784  79.5696 280.5384 15.08833503 70983,6917.9,95.438,540.308,539.223,0.0
52134.0,STARLINK-3721,PAYLOAD,2023-06-20 11:13:39,15.08833856,9.89e-05,53.2157,207.8651,88.7891,271.3214,7.235e-06,-1.73e-06,0.0,0 STARLINK-3721,1 52134U 22029AY  23171.46781671 -.00000173  00000-0  72350-5 0  9998,2 52134  53.2157 207.8651 0000989  88.7891 271.3214 15.08833856 70998,6917.899,95.438,540.448,539.08,0.0
52134.0,STARLINK-3721,PAYLOAD,2023-06-21 09:29:02,15.08840839,0.0001054,53.2166,203.7029,95.9699,264.1414,5.619e-05,6.07e-06,0.0,0 STARLINK-3721,1 52134U 22029AY  23172.39517317  .00000607  00000-0  56190-4 0  9999,2 52134  53.2166 203.7029 0001054  95.9699 264.1414 15.08840839 71130,6917.878,95.438,540.472,539.014,0.0
52134.0,STARLINK-3721,PAYLOAD,2023-06-22 18:52:08,15.08840642,9.69e-05,53.2154,197.4575,85.3389,274.7713,8.8106e-05,1.115e-05,0.0,0 STARLINK-3721,1 52134U 22029AY  23173.78621462  .00001115  00000-0  88106-4 0  9997,2 52134  53.2154 197.4575 0000969  85.3389 274.7713 15.08840642 71349,6917.878,95.438,540.414,539.073,0.0
52134.0,STARLINK-3721,PAYLOAD,2023-06-24 01:04:28,15.08841788,9.77e-05,53.2155,191.8069,86.4794,273.631,4.8232e-05,4.8e-06,0.0,0 STARLINK-3721,1 52134U 22029AY  23175.04477368  .00000480  00000-0  48232-4 0  9992,2 52134  53.2155 191.8069 0000977  86.4794 273.6310 15.08841788 71531,6917.875,95.437,540.416,539.064,0.0
52134.0,STARLINK-3721,PAYLOAD,2023-06-25 07:16:47,15.0884245,9.98e-05,53.2152,186.1565,87.4746,272.636,4.9523e-05,5.01e-06,0.0,0 STARLINK-3721,1 52134U 22029AY  23176.30333217  .00000501  00000-0  49523-4 0  9994,2 52134  53.2152 186.1565 0000998  87.4746 272.6360 15.08842450 71729,6917.873,95.437,540.428,539.047,0.0
